{"fetched_at":"2026-07-17T17:38:19.080Z","source":"https://celestrak.org/NORAD/elements/gp.php?NAME=HULIANWANG&FORMAT=JSON","constellation":"guowang","records":[{"OBJECT_NAME":"HULIANWANG DIGUI-156","OBJECT_ID":"2026-047B","EPOCH":"2026-07-16T16:35:15.133632","CLASSIFICATION_TYPE":"U","MEAN_MOTION":13.29326213,"ECCENTRICITY":0.00008597,"INCLINATION":50.0048,"RA_OF_ASC_NODE":310.4966,"ARG_OF_PERICENTER":207.5727,"MEAN_ANOMALY":152.51,"EPHEMERIS_TYPE":0,"NORAD_CAT_ID":68130,"ELEMENT_SET_NO":999,"REV_AT_EPOCH":1698,"BSTAR":0.000071640007,"MEAN_MOTION_DOT":-9.1e-7,"MEAN_MOTION_DDOT":0},{"OBJECT_NAME":"HULIANWANG DIGUI-157","OBJECT_ID":"2026-047C","EPOCH":"2026-07-17T06:49:18.932160","CLASSIFICATION_TYPE":"U","MEAN_MOTION":13.29325602,"ECCENTRICITY":0.00008724,"INCLINATION":50.0019,"RA_OF_ASC_NODE":308.2665,"ARG_OF_PERICENTER":206.3393,"MEAN_ANOMALY":153.7435,"EPHEMERIS_TYPE":0,"NORAD_CAT_ID":68131,"ELEMENT_SET_NO":999,"REV_AT_EPOCH":1707,"BSTAR":0.000082755682,"MEAN_MOTION_DOT":-8.6e-7,"MEAN_MOTION_DDOT":0},{"OBJECT_NAME":"HULIANWANG DIGUI-158","OBJECT_ID":"2026-047D","EPOCH":"2026-07-17T06:37:14.717856","CLASSIFICATION_TYPE":"U","MEAN_MOTION":13.29324353,"ECCENTRICITY":0.00009608,"INCLINATION":50.0064,"RA_OF_ASC_NODE":308.2716,"ARG_OF_PERICENTER":205.2576,"MEAN_ANOMALY":154.8249,"EPHEMERIS_TYPE":0,"NORAD_CAT_ID":68132,"ELEMENT_SET_NO":999,"REV_AT_EPOCH":1706,"BSTAR":0.000080693863,"MEAN_MOTION_DOT":-8.7e-7,"MEAN_MOTION_DDOT":0},{"OBJECT_NAME":"HULIANWANG DIGUI-159","OBJECT_ID":"2026-047E","EPOCH":"2026-07-17T06:25:14.324160","CLASSIFICATION_TYPE":"U","MEAN_MOTION":13.29326206,"ECCENTRICITY":0.00010328,"INCLINATION":50.0023,"RA_OF_ASC_NODE":308.1959,"ARG_OF_PERICENTER":202.7831,"MEAN_ANOMALY":157.2996,"EPHEMERIS_TYPE":0,"NORAD_CAT_ID":68133,"ELEMENT_SET_NO":999,"REV_AT_EPOCH":1707,"BSTAR":0.000088650472,"MEAN_MOTION_DOT":-8.3e-7,"MEAN_MOTION_DDOT":0},{"OBJECT_NAME":"HULIANWANG DIGUI-160","OBJECT_ID":"2026-047F","EPOCH":"2026-07-17T07:49:19.316928","CLASSIFICATION_TYPE":"U","MEAN_MOTION":13.2932591,"ECCENTRICITY":0.00011106,"INCLINATION":50.0091,"RA_OF_ASC_NODE":307.9004,"ARG_OF_PERICENTER":190.5504,"MEAN_ANOMALY":169.5345,"EPHEMERIS_TYPE":0,"NORAD_CAT_ID":68134,"ELEMENT_SET_NO":999,"REV_AT_EPOCH":1707,"BSTAR":0.00006687744,"MEAN_MOTION_DOT":-9.3e-7,"MEAN_MOTION_DDOT":0},{"OBJECT_NAME":"HULIANWANG DIGUI-161","OBJECT_ID":"2026-047G","EPOCH":"2026-07-16T12:10:30.145440","CLASSIFICATION_TYPE":"U","MEAN_MOTION":13.29334513,"ECCENTRICITY":0.00009298,"INCLINATION":50.011,"RA_OF_ASC_NODE":310.9303,"ARG_OF_PERICENTER":200.5662,"MEAN_ANOMALY":159.5173,"EPHEMERIS_TYPE":0,"NORAD_CAT_ID":68135,"ELEMENT_SET_NO":999,"REV_AT_EPOCH":1697,"BSTAR":0.00007304399,"MEAN_MOTION_DOT":-9e-7,"MEAN_MOTION_DDOT":0},{"OBJECT_NAME":"HULIANWANG DIGUI-162","OBJECT_ID":"2026-047H","EPOCH":"2026-07-17T07:37:37.807680","CLASSIFICATION_TYPE":"U","MEAN_MOTION":13.29324291,"ECCENTRICITY":0.00009223,"INCLINATION":50.008,"RA_OF_ASC_NODE":307.8483,"ARG_OF_PERICENTER":210.3982,"MEAN_ANOMALY":149.6837,"EPHEMERIS_TYPE":0,"NORAD_CAT_ID":68136,"ELEMENT_SET_NO":999,"REV_AT_EPOCH":1707,"BSTAR":0.000066852739,"MEAN_MOTION_DOT":-9.3e-7,"MEAN_MOTION_DDOT":0},{"OBJECT_NAME":"HULIANWANG DIGUI-163","OBJECT_ID":"2026-047J","EPOCH":"2026-07-16T06:09:41.101344","CLASSIFICATION_TYPE":"U","MEAN_MOTION":13.29339093,"ECCENTRICITY":0.0000779,"INCLINATION":50.0082,"RA_OF_ASC_NODE":311.5813,"ARG_OF_PERICENTER":206.4884,"MEAN_ANOMALY":153.5948,"EPHEMERIS_TYPE":0,"NORAD_CAT_ID":68137,"ELEMENT_SET_NO":999,"REV_AT_EPOCH":1694,"BSTAR":0.000069226,"MEAN_MOTION_DOT":-9.2e-7,"MEAN_MOTION_DDOT":0},{"OBJECT_NAME":"HULIANWANG DIGUI-164","OBJECT_ID":"2026-076A","EPOCH":"2026-07-17T04:40:36.990912","CLASSIFICATION_TYPE":"U","MEAN_MOTION":13.24410714,"ECCENTRICITY":0.00020004,"INCLINATION":86.4946,"RA_OF_ASC_NODE":33.7425,"ARG_OF_PERICENTER":78.3075,"MEAN_ANOMALY":281.8284,"EPHEMERIS_TYPE":0,"NORAD_CAT_ID":68656,"ELEMENT_SET_NO":999,"REV_AT_EPOCH":1334,"BSTAR":0.000023919498,"MEAN_MOTION_DOT":2.5e-7,"MEAN_MOTION_DDOT":0},{"OBJECT_NAME":"HULIANWANG DIGUI-165","OBJECT_ID":"2026-076B","EPOCH":"2026-07-17T06:18:32.381856","CLASSIFICATION_TYPE":"U","MEAN_MOTION":13.24413312,"ECCENTRICITY":0.00021486,"INCLINATION":86.4965,"RA_OF_ASC_NODE":33.7367,"ARG_OF_PERICENTER":83.7287,"MEAN_ANOMALY":276.4092,"EPHEMERIS_TYPE":0,"NORAD_CAT_ID":68657,"ELEMENT_SET_NO":999,"REV_AT_EPOCH":1335,"BSTAR":-0.000048900748,"MEAN_MOTION_DOT":-6e-8,"MEAN_MOTION_DDOT":0},{"OBJECT_NAME":"HULIANWANG DIGUI-166","OBJECT_ID":"2026-076C","EPOCH":"2026-07-17T06:07:45.121440","CLASSIFICATION_TYPE":"U","MEAN_MOTION":13.24411396,"ECCENTRICITY":0.00021113,"INCLINATION":86.4906,"RA_OF_ASC_NODE":33.6695,"ARG_OF_PERICENTER":83.9144,"MEAN_ANOMALY":276.223,"EPHEMERIS_TYPE":0,"NORAD_CAT_ID":68658,"ELEMENT_SET_NO":999,"REV_AT_EPOCH":1335,"BSTAR":-0.000027013437,"MEAN_MOTION_DOT":3e-8,"MEAN_MOTION_DDOT":0},{"OBJECT_NAME":"HULIANWANG DIGUI-167","OBJECT_ID":"2026-076D","EPOCH":"2026-07-17T05:56:46.460544","CLASSIFICATION_TYPE":"U","MEAN_MOTION":13.24413487,"ECCENTRICITY":0.0002101,"INCLINATION":86.496,"RA_OF_ASC_NODE":33.7264,"ARG_OF_PERICENTER":84.0825,"MEAN_ANOMALY":276.0548,"EPHEMERIS_TYPE":0,"NORAD_CAT_ID":68659,"ELEMENT_SET_NO":999,"REV_AT_EPOCH":1335,"BSTAR":-0.000034019955,"MEAN_MOTION_DOT":0,"MEAN_MOTION_DDOT":0},{"OBJECT_NAME":"HULIANWANG DIGUI-168","OBJECT_ID":"2026-076E","EPOCH":"2026-07-17T05:45:54.252000","CLASSIFICATION_TYPE":"U","MEAN_MOTION":13.24411626,"ECCENTRICITY":0.00021387,"INCLINATION":86.4942,"RA_OF_ASC_NODE":33.7018,"ARG_OF_PERICENTER":84.2044,"MEAN_ANOMALY":275.9334,"EPHEMERIS_TYPE":0,"NORAD_CAT_ID":68660,"ELEMENT_SET_NO":999,"REV_AT_EPOCH":1334,"BSTAR":-0.000063503419,"MEAN_MOTION_DOT":-1.3e-7,"MEAN_MOTION_DDOT":0}]}
