HULIANWANG DIGUI-156    
1 68130U 26047B   26197.69114738 -.00000091  00000+0  71640-4 0  9993
2 68130  50.0048 310.4966 0000859 207.5727 152.5100 13.29326213 16988
HULIANWANG DIGUI-157    
1 68131U 26047C   26198.28424690 -.00000086  00000+0  82756-4 0  9995
2 68131  50.0019 308.2665 0000872 206.3393 153.7435 13.29325602 17075
HULIANWANG DIGUI-158    
1 68132U 26047D   26198.27586479 -.00000087  00000+0  80694-4 0  9999
2 68132  50.0064 308.2716 0000960 205.2576 154.8249 13.29324353 17068
HULIANWANG DIGUI-159    
1 68133U 26047E   26198.26752690 -.00000083  00000+0  88650-4 0  9995
2 68133  50.0023 308.1959 0001032 202.7831 157.2996 13.29326206 17075
HULIANWANG DIGUI-160    
1 68134U 26047F   26198.32591802 -.00000093  00000+0  66877-4 0  9997
2 68134  50.0091 307.9004 0001110 190.5504 169.5345 13.29325910 17072
HULIANWANG DIGUI-161    
1 68135U 26047G   26197.50729335 -.00000090  00000+0  73044-4 0  9992
2 68135  50.0110 310.9303 0000929 200.5662 159.5173 13.29334513 16970
HULIANWANG DIGUI-162    
1 68136U 26047H   26198.31779870 -.00000093  00000+0  66853-4 0  9995
2 68136  50.0080 307.8483 0000922 210.3982 149.6837 13.29324291 17079
HULIANWANG DIGUI-163    
1 68137U 26047J   26197.25672571 -.00000092  00000+0  69226-4 0  9994
2 68137  50.0082 311.5813 0000779 206.4884 153.5948 13.29339093 16946
HULIANWANG DIGUI-164    
1 68656U 26076A   26198.19487258  .00000025  00000+0  23919-4 0  9996
2 68656  86.4946  33.7425 0002000  78.3075 281.8284 13.24410714 13347
HULIANWANG DIGUI-165    
1 68657U 26076B   26198.26287479 -.00000006  00000+0 -48901-4 0  9997
2 68657  86.4965  33.7367 0002148  83.7287 276.4092 13.24413312 13357
HULIANWANG DIGUI-166    
1 68658U 26076C   26198.25538335  .00000003  00000+0 -27013-4 0  9994
2 68658  86.4906  33.6695 0002111  83.9144 276.2230 13.24411396 13352
HULIANWANG DIGUI-167    
1 68659U 26076D   26198.24775996  .00000000  00000+0 -34020-4 0  9993
2 68659  86.4960  33.7264 0002101  84.0825 276.0548 13.24413487 13356
HULIANWANG DIGUI-168    
1 68660U 26076E   26198.24021125 -.00000013  00000+0 -63503-4 0  9996
2 68660  86.4942  33.7018 0002138  84.2044 275.9334 13.24411626 13343
